STARLINK-6115           
1 56123U 23046AH  26067.12409219  .00082340  00000+0  59277-2 0  9999
2 56123  43.0032 154.7214 0002153 293.4469  66.6148 15.03237821161970
ION SCV-014             
1 62630U 25009X   26068.71776957  .00001812  00000+0  13229-3 0  9995
2 62630  97.4923 144.8636 0006450 112.6479 247.5430 15.04884649 63025
