[{"OBJECT_NAME":"STARLINK-6115","OBJECT_ID":"2023-046AH","EPOCH":"2026-03-08T02:58:41.565216","MEAN_MOTION":15.03237821,"ECCENTRICITY":0.00021533,"INCLINATION":43.0032,"RA_OF_ASC_NODE":154.7214,"ARG_OF_PERICENTER":293.4469,"MEAN_ANOMALY":66.6148,"EPHEMERIS_TYPE":0,"CLASSIFICATION_TYPE":"U","NORAD_CAT_ID":56123,"ELEMENT_SET_NO":999,"REV_AT_EPOCH":16197,"BSTAR":0.0059276759,"MEAN_MOTION_DOT":0.0008234,"MEAN_MOTION_DDOT":0},{"OBJECT_NAME":"ION SCV-014","OBJECT_ID":"2025-009X","EPOCH":"2026-03-09T17:13:35.291712","MEAN_MOTION":15.0488465,"ECCENTRICITY":0.00064503,"INCLINATION":97.4923,"RA_OF_ASC_NODE":144.8636,"ARG_OF_PERICENTER":112.6479,"MEAN_ANOMALY":247.543,"EPHEMERIS_TYPE":0,"CLASSIFICATION_TYPE":"U","NORAD_CAT_ID":62630,"ELEMENT_SET_NO":999,"REV_AT_EPOCH":6302,"BSTAR":0.0001322874,"MEAN_MOTION_DOT":1.812e-5,"MEAN_MOTION_DDOT":0}]
